[{"OBJECT_NAME":"STARLINK-4376","OBJECT_ID":"2022-084AD","EPOCH":"2026-03-09T17:54:03.530880","MEAN_MOTION":15.01263228,"ECCENTRICITY":0.00014488,"INCLINATION":97.6035,"RA_OF_ASC_NODE":130.2554,"ARG_OF_PERICENTER":193.6697,"MEAN_ANOMALY":166.4488,"EPHEMERIS_TYPE":0,"CLASSIFICATION_TYPE":"U","NORAD_CAT_ID":53216,"ELEMENT_SET_NO":999,"REV_AT_EPOCH":19932,"BSTAR":-2.7617379e-5,"MEAN_MOTION_DOT":-4.13e-6,"MEAN_MOTION_DDOT":0},{"OBJECT_NAME":"SL-8 R\/B","OBJECT_ID":"1968-040B","EPOCH":"2026-03-09T18:37:46.369632","MEAN_MOTION":15.03260494,"ECCENTRICITY":0.00239141,"INCLINATION":74.0322,"RA_OF_ASC_NODE":313.5182,"ARG_OF_PERICENTER":137.361,"MEAN_ANOMALY":222.9441,"EPHEMERIS_TYPE":0,"CLASSIFICATION_TYPE":"U","NORAD_CAT_ID":3230,"ELEMENT_SET_NO":999,"REV_AT_EPOCH":9002,"BSTAR":0.00025747843,"MEAN_MOTION_DOT":3.469e-5,"MEAN_MOTION_DDOT":0}]
